GSAT0101 (PRN E11)      
1 37846U 11060A   22205.79321648 -.00000082  00000+0  00000+0 0  9996
2 37846  57.0111  20.3210 0003199  60.1833 299.8753  1.70475232 66989
GSAT0102 (PRN E12)      
1 37847U 11060B   22207.23581463 -.00000078  00000+0  00000+0 0  9996
2 37847  57.0123  20.2817 0002230  17.9790 194.1369  1.70475590 66888
GSAT0103 (PRN E19)      
1 38857U 12055A   22207.00575658 -.00000018  00000+0  00000+0 0  9991
2 38857  55.1482 140.6397 0004200 271.2258  88.6894  1.70473817 60907
GSAT0104 (PRN E20)      
1 38858U 12055B   22208.14898795 -.00000014  00000+0  00000+0 0  9994
2 38858  55.1487 140.6097 0001680 275.3533  84.5939  1.70474111 60789
GSAT0201 (PRN E18)      
1 40128U 14050A   22207.55637600 -.00000113  00000+0  00000+0 0  9994
2 40128  50.2579 330.7254 1625150 125.4748 250.8210  1.85519305 51944
GSAT0202 (PRN E14)      
1 40129U 14050B   22207.27823791 -.00000114  00000+0  00000+0 0  9993
2 40129  50.2825 329.7982 1622280 126.2746 249.8520  1.85519942 54103
GSAT0203 (PRN E26)      
1 40544U 15017A   22207.92000062 -.00000076  00000+0  00000+0 0  9995
2 40544  56.8074  20.2913 0001614 209.2739 150.7413  1.70476170 44978
GSAT0204 (PRN E22)      
1 40545U 15017B   22207.58621100 -.00000077  00000+0  00000+0 0  9991
2 40545  56.8130  20.3129 0002130 182.2423 177.7815  1.70475855 45634
GSAT0205 (PRN E24)      
1 40889U 15045A   22203.83389319  .00000016  00000+0  00000+0 0  9992
2 40889  55.6002 260.9865 0003196 359.4062   0.6741  1.70473943 42713
GSAT0206 (PRN E30)      
1 40890U 15045B   22208.16079405  .00000040  00000+0  00000+0 0  9994
2 40890  55.5965 260.8629 0002120 320.4241  39.6603  1.70473901 42816
GSAT0209 (PRN E09)      
1 41174U 15079A   22207.16170472 -.00000018  00000+0  00000+0 0  9998
2 41174  55.1648 140.3393 0004512 313.8909  46.0358  1.70474130 40531
GSAT0208 (PRN E08)      
1 41175U 15079B   22206.20799897 -.00000019  00000+0  00000+0 0  9992
2 41175  55.1629 140.3641 0003921 313.2701  46.6602  1.70474129 41092
GSAT0211 (PRN E02)      
1 41549U 16030A   22207.50062485  .00000038  00000+0  00000+0 0  9995
2 41549  55.7427 260.8183 0003796 301.9603  58.1011  1.70475444 38430
GSAT0210 (PRN E01)      
1 41550U 16030B   22206.03348772  .00000031  00000+0  00000+0 0  9993
2 41550  55.7430 260.8600 0004046 270.5426  89.5032  1.70475406 38409
GSAT0207 (PRN E07)      
1 41859U 16069A   22206.28186466 -.00000019  00000+0  00000+0 0  9991
2 41859  54.8252 140.5353 0004661 300.0960  59.8204  1.70472783 35141
GSAT0212 (PRN E03)      
1 41860U 16069B   22207.30844527 -.00000017  00000+0  00000+0 0  9994
2 41860  54.8229 140.5044 0003438 324.3183  35.6225  1.70472781 35414
GSAT0213 (PRN E04)      
1 41861U 16069C   22205.32747712 -.00000019  00000+0  00000+0 0  9995
2 41861  54.8249 140.5646 0004251 279.3755  80.5397  1.70472951 35242
GSAT0214 (PRN E05)      
1 41862U 16069D   22207.23433925 -.00000018  00000+0  00000+0 0  9995
2 41862  54.8236 140.5062 0003422 284.7566  75.1692  1.70472853 35407
GSAT0215 (PRN E21)      
1 43055U 17079A   22202.44558063  .00000006  00000+0  00000+0 0  9998
2 43055  55.7213 260.7893 0003480 263.4398  96.5963  1.70474581 28664
GSAT0216 (PRN E25)      
1 43056U 17079B   22206.84388828  .00000035  00000+0  00000+0 0  9999
2 43056  55.7191 260.6679 0005337 269.9958  90.0389  1.70474706 28757
GSAT0217 (PRN E27)      
1 43057U 17079C   22205.30437547  .00000027  00000+0  00000+0 0  9994
2 43057  55.7181 260.7100 0004559 280.0916  79.9454  1.70474736 28718
GSAT0218 (PRN E31)      
1 43058U 17079D   22207.28417449  .00000037  00000+0  00000+0 0  9994
2 43058  55.7170 260.6528 0005668 267.1772  92.8555  1.70474673 28770
GSAT0221 (PRN E15)      
1 43564U 18060A   22206.59626889 -.00000079  00000+0  00000+0 0  9997
2 43564  57.1880  20.1526 0001356 269.6559  90.3543  1.70476034 24929
GSAT0222 (PRN E33)      
1 43565U 18060B   22208.57588558 -.00000074  00000+0  00000+0 0  9993
2 43565  57.1916  20.0998 0000998 297.1401  62.8724  1.70476026 24998
GSAT0219 (PRN E36)      
1 43566U 18060C   22207.03668273 -.00000078  00000+0  00000+0 0  9991
2 43566  57.1917  20.1433 0000664 306.2693  53.7498  1.70476062 24942
GSAT0220 (PRN E13)      
1 43567U 18060D   22204.91048447 -.00000083  00000+0  00000+0 0  9997
2 43567  57.1907  20.2004 0000822 273.4493  86.5682  1.70476003 24894
GSAT0223                
1 49809U 21116A   22207.11534497 -.00000078  00000+0  00000+0 0  9992
2 49809  57.1840  20.0395 0002821 143.8208 219.3912  1.70476218  3944
GSAT0224                
1 49810U 21116B   22204.87549237 -.00000084  00000+0  00000+0 0  9999
2 49810  57.1842  20.0975 0002610 127.6024  53.4401  1.70476174  3912
